[{"OBJECT_NAME":"OPTICUBE 04","OBJECT_ID":"2016-067D","EPOCH":"2026-03-09T12:14:28.758048","MEAN_MOTION":15.09188378,"ECCENTRICITY":0.00170901,"INCLINATION":98.0811,"RA_OF_ASC_NODE":275.5525,"ARG_OF_PERICENTER":94.6311,"MEAN_ANOMALY":265.6869,"EPHEMERIS_TYPE":0,"CLASSIFICATION_TYPE":"U","NORAD_CAT_ID":41851,"ELEMENT_SET_NO":999,"REV_AT_EPOCH":51013,"BSTAR":0.00024566739,"MEAN_MOTION_DOT":3.845e-5,"MEAN_MOTION_DDOT":0},{"OBJECT_NAME":"STARLINK-3207","OBJECT_ID":"2021-115AJ","EPOCH":"2026-03-09T11:43:14.845728","MEAN_MOTION":15.08835744,"ECCENTRICITY":0.00015294,"INCLINATION":53.217,"RA_OF_ASC_NODE":140.0239,"ARG_OF_PERICENTER":103.8178,"MEAN_ANOMALY":256.2985,"EPHEMERIS_TYPE":0,"CLASSIFICATION_TYPE":"U","NORAD_CAT_ID":49756,"ELEMENT_SET_NO":999,"REV_AT_EPOCH":23564,"BSTAR":5.349943e-6,"MEAN_MOTION_DOT":-2.03e-6,"MEAN_MOTION_DDOT":0}]
